{
    "links": {
        "self": "http://www.neowsapp.com/rest/v1/neo/3751822?api_key=iIulBulltgU6a56xZRHN4H3l9WmuAYTsLGpBGhQ2"
    },
    "id": "3751822",
    "neo_reference_id": "3751822",
    "name": "(2016 GW220)",
    "designation": "2016 GW220",
    "nasa_jpl_url": "http://ssd.jpl.nasa.gov/sbdb.cgi?sstr=3751822",
    "absolute_magnitude_h": 26.8,
    "estimated_diameter": {
        "kilometers": {
            "estimated_diameter_min": 0.0116025908,
            "estimated_diameter_max": 0.0259441818
        },
        "meters": {
            "estimated_diameter_min": 11.6025908209,
            "estimated_diameter_max": 25.9441817907
        },
        "miles": {
            "estimated_diameter_min": 0.0072095135,
            "estimated_diameter_max": 0.0161209622
        },
        "feet": {
            "estimated_diameter_min": 38.066244069,
            "estimated_diameter_max": 85.1187093863
        }
    },
    "is_potentially_hazardous_asteroid": false,
    "close_approach_data": [
        {
            "close_approach_date": "2016-04-10",
            "close_approach_date_full": "2016-Apr-10 23:41",
            "epoch_date_close_approach": 1460331660000,
            "relative_velocity": {
                "kilometers_per_second": "13.2359668099",
                "kilometers_per_hour": "47649.4805156047",
                "miles_per_hour": "29607.5341570434"
            },
            "miss_distance": {
                "astronomical": "0.0145452302",
                "lunar": "5.6580945478",
                "kilometers": "2175935.456579674",
                "miles": "1352063.5966965412"
            },
            "orbiting_body": "Earth"
        },
        {
            "close_approach_date": "2020-02-29",
            "close_approach_date_full": "2020-Feb-29 01:51",
            "epoch_date_close_approach": 1582941060000,
            "relative_velocity": {
                "kilometers_per_second": "16.9026165914",
                "kilometers_per_hour": "60849.4197288827",
                "miles_per_hour": "37809.4630532049"
            },
            "miss_distance": {
                "astronomical": "0.0777337141",
                "lunar": "30.2384147849",
                "kilometers": "11628798.056548967",
                "miles": "7225800.0475390646"
            },
            "orbiting_body": "Mars"
        },
        {
            "close_approach_date": "2033-04-30",
            "close_approach_date_full": "2033-Apr-30 22:09",
            "epoch_date_close_approach": 1998511740000,
            "relative_velocity": {
                "kilometers_per_second": "7.7371290491",
                "kilometers_per_hour": "27853.6645765961",
                "miles_per_hour": "17307.1839698299"
            },
            "miss_distance": {
                "astronomical": "1.9440869827",
                "lunar": "756.2498362703",
                "kilometers": "290831271.706646849",
                "miles": "180714172.4109865562"
            },
            "orbiting_body": "Juptr"
        }
    ],
    "orbital_data": {
        "orbit_id": "7",
        "orbit_determination_date": "2017-04-06 08:26:32",
        "first_observation_date": "2016-04-13",
        "last_observation_date": "2016-04-20",
        "data_arc_in_days": 7,
        "observations_used": 64,
        "orbit_uncertainty": "7",
        "minimum_orbit_intersection": ".000920753",
        "jupiter_tisserand_invariant": "3.212",
        "epoch_osculation": "2459000.5",
        "eccentricity": ".6371683921651067",
        "semi_major_axis": "2.404070903597888",
        "inclination": ".1840136145811016",
        "ascending_node_longitude": "123.9709010108741",
        "orbital_period": "1361.505296650352",
        "perihelion_distance": ".8722729113015067",
        "perihelion_argument": "27.06149220571461",
        "aphelion_distance": "3.93586889589427",
        "perihelion_time": "2458814.521249338936",
        "mean_anomaly": "49.17524037747243",
        "mean_motion": ".2644132203419929",
        "equinox": "J2000",
        "orbit_class": {
            "orbit_class_type": "APO",
            "orbit_class_description": "Near-Earth asteroid orbits which cross the Earth’s orbit similar to that of 1862 Apollo",
            "orbit_class_range": "a (semi-major axis) > 1.0 AU; q (perihelion) < 1.017 AU"
        }
    },
    "is_sentry_object": false
}